{
  "type": "FeatureCollection",
  "features": [
    {
      "type": "Feature",
      "properties": {
        "norad_id": 44333,
        "name": "AT&T T-16",
        "group": "intelsat",
        "lat": 0.0008974259728407899,
        "lon": -141.84775521288987,
        "alt_km": 35786.303626795365,
        "timestamp": "2025-12-11T15:53:39.210285+00:00",
        "meta_object_name": "AT&T T-16",
        "meta_object_id": "2019-034A",
        "meta_epoch": "2025-12-10T23:20:04.800192",
        "meta_mean_motion": 1.00268632,
        "meta_eccentricity": 5.108e-05,
        "meta_inclination": 0.0297,
        "meta_ra_of_asc_node": 74.5044,
        "meta_arg_of_pericenter": 72.1437,
        "meta_mean_anomaly": 182.4372,
        "meta_ephemeris_type": 0,
        "meta_classification_type": "U",
        "meta_norad_cat_id": 44333,
        "meta_element_set_no": 999,
        "meta_rev_at_epoch": 2374,
        "meta_bstar": 0,
        "meta_mean_motion_dot": -1.09e-06,
        "meta_mean_motion_ddot": 0,
        "tle_line1": "1 44333U 19034A   25344.97227778 -.00000109  00000+0  00000+0 0  9990",
        "tle_line2": "2 44333   0.0297  74.5044 0000510  72.1437 182.4372  1.00268632 23742"
      },
      "geometry": {
        "type": "Point",
        "coordinates": [
          -141.84775521288987,
          0.0008974259728407899
        ]
      }
    },
    {
      "type": "Feature",
      "properties": {
        "norad_id": 44476,
        "name": "INTELSAT 39 (IS-39)",
        "group": "intelsat",
        "lat": 0.028344293658124645,
        "lon": 20.96180337309566,
        "alt_km": 35788.65138429329,
        "timestamp": "2025-12-11T15:53:39.210297+00:00",
        "meta_object_name": "INTELSAT 39 (IS-39)",
        "meta_object_id": "2019-049B",
        "meta_epoch": "2025-12-11T05:14:47.270688",
        "meta_mean_motion": 1.00270766,
        "meta_eccentricity": 9.52e-05,
        "meta_inclination": 0.0192,
        "meta_ra_of_asc_node": 327.7317,
        "meta_arg_of_pericenter": 178.7135,
        "meta_mean_anomaly": 74.3777,
        "meta_ephemeris_type": 0,
        "meta_classification_type": "U",
        "meta_norad_cat_id": 44476,
        "meta_element_set_no": 999,
        "meta_rev_at_epoch": 2324,
        "meta_bstar": 0,
        "meta_mean_motion_dot": 4e-07,
        "meta_mean_motion_ddot": 0,
        "tle_line1": "1 44476U 19049B   25345.21860267  .00000040  00000+0  00000+0 0  9991",
        "tle_line2": "2 44476   0.0192 327.7317 0000952 178.7135  74.3777  1.00270766 23242"
      },
      "geometry": {
        "type": "Point",
        "coordinates": [
          20.96180337309566,
          0.028344293658124645
        ]
      }
    },
    {
      "type": "Feature",
      "properties": {
        "norad_id": 46114,
        "name": "GALAXY 30 (G-30)",
        "group": "intelsat",
        "lat": -0.02312181648754162,
        "lon": -165.99581110828765,
        "alt_km": 35782.01954847136,
        "timestamp": "2025-12-11T15:53:39.210309+00:00",
        "meta_object_name": "GALAXY 30 (G-30)",
        "meta_object_id": "2020-056C",
        "meta_epoch": "2025-12-11T04:35:38.717376",
        "meta_mean_motion": 1.00272338,
        "meta_eccentricity": 0.00023056,
        "meta_inclination": 0.0165,
        "meta_ra_of_asc_node": 328.5653,
        "meta_arg_of_pericenter": 292.0277,
        "meta_mean_anomaly": 123.4727,
        "meta_ephemeris_type": 0,
        "meta_classification_type": "U",
        "meta_norad_cat_id": 46114,
        "meta_element_set_no": 999,
        "meta_rev_at_epoch": 1940,
        "meta_bstar": 0,
        "meta_mean_motion_dot": 4.3e-07,
        "meta_mean_motion_ddot": 0,
        "tle_line1": "1 46114U 20056C   25345.19142034  .00000043  00000+0  00000+0 0  9997",
        "tle_line2": "2 46114   0.0165 328.5653 0002305 292.0277 123.4727  1.00272338 19407"
      },
      "geometry": {
        "type": "Point",
        "coordinates": [
          -165.99581110828765,
          -0.02312181648754162
        ]
      }
    },
    {
      "type": "Feature",
      "properties": {
        "norad_id": 54026,
        "name": "GALAXY 33 (G-33)",
        "group": "intelsat",
        "lat": -0.01744986899844585,
        "lon": -173.99134407056314,
        "alt_km": 35783.10643768527,
        "timestamp": "2025-12-11T15:53:39.210321+00:00",
        "meta_object_name": "GALAXY 33 (G-33)",
        "meta_object_id": "2022-128A",
        "meta_epoch": "2025-12-11T04:43:38.646912",
        "meta_mean_motion": 1.00271089,
        "meta_eccentricity": 0.0002044,
        "meta_inclination": 0.0115,
        "meta_ra_of_asc_node": 323.4657,
        "meta_arg_of_pericenter": 291.2943,
        "meta_mean_anomaly": 123.315,
        "meta_ephemeris_type": 0,
        "meta_classification_type": "U",
        "meta_norad_cat_id": 54026,
        "meta_element_set_no": 999,
        "meta_rev_at_epoch": 1185,
        "meta_bstar": 0,
        "meta_mean_motion_dot": 8.5e-07,
        "meta_mean_motion_ddot": 0,
        "tle_line1": "1 54026U 22128A   25345.19697508  .00000085  00000+0  00000+0 0  9997",
        "tle_line2": "2 54026   0.0115 323.4657 0002044 291.2943 123.3150  1.00271089 11854"
      },
      "geometry": {
        "type": "Point",
        "coordinates": [
          -173.99134407056314,
          -0.01744986899844585
        ]
      }
    },
    {
      "type": "Feature",
      "properties": {
        "norad_id": 54027,
        "name": "GALAXY 34 (G-34)",
        "group": "intelsat",
        "lat": -0.022536008549317,
        "lon": -169.92233357263265,
        "alt_km": 35783.93528567271,
        "timestamp": "2025-12-11T15:53:39.210332+00:00",
        "meta_object_name": "GALAXY 34 (G-34)",
        "meta_object_id": "2022-128B",
        "meta_epoch": "2025-12-11T04:35:38.717376",
        "meta_mean_motion": 1.00269657,
        "meta_eccentricity": 0.00014852,
        "meta_inclination": 0.0228,
        "meta_ra_of_asc_node": 336.4387,
        "meta_arg_of_pericenter": 278.067,
        "meta_mean_anomaly": 125.6291,
        "meta_ephemeris_type": 0,
        "meta_classification_type": "U",
        "meta_norad_cat_id": 54027,
        "meta_element_set_no": 999,
        "meta_rev_at_epoch": 1202,
        "meta_bstar": 0,
        "meta_mean_motion_dot": 0,
        "meta_mean_motion_ddot": 0,
        "tle_line1": "1 54027U 22128B   25345.19142034  .00000000  00000+0  00000+0 0  9994",
        "tle_line2": "2 54027   0.0228 336.4387 0001485 278.0670 125.6291  1.00269657 12021"
      },
      "geometry": {
        "type": "Point",
        "coordinates": [
          -169.92233357263265,
          -0.022536008549317
        ]
      }
    },
    {
      "type": "Feature",
      "properties": {
        "norad_id": 54243,
        "name": "GALAXY 31 (G-31)",
        "group": "intelsat",
        "lat": -0.015872092362377205,
        "lon": -161.9809844444025,
        "alt_km": 35783.64108651096,
        "timestamp": "2025-12-11T15:53:39.210349+00:00",
        "meta_object_name": "GALAXY 31 (G-31)",
        "meta_object_id": "2022-153A",
        "meta_epoch": "2025-12-10T23:14:20.350176",
        "meta_mean_motion": 1.00272485,
        "meta_eccentricity": 0.00018393,
        "meta_inclination": 0.0145,
        "meta_ra_of_asc_node": 258.162,
        "meta_arg_of_pericenter": 13.4578,
        "meta_mean_anomaly": 35.9092,
        "meta_ephemeris_type": 0,
        "meta_classification_type": "U",
        "meta_norad_cat_id": 54243,
        "meta_element_set_no": 999,
        "meta_rev_at_epoch": 524,
        "meta_bstar": 0,
        "meta_mean_motion_dot": 1.8e-07,
        "meta_mean_motion_ddot": 0,
        "tle_line1": "1 54243U 22153A   25344.96829109  .00000018  00000+0  00000+0 0  9990",
        "tle_line2": "2 54243   0.0145 258.1620 0001839  13.4578  35.9092  1.00272485  5241"
      },
      "geometry": {
        "type": "Point",
        "coordinates": [
          -161.9809844444025,
          -0.015872092362377205
        ]
      }
    },
    {
      "type": "Feature",
      "properties": {
        "norad_id": 54244,
        "name": "GALAXY 32 (G-32)",
        "group": "intelsat",
        "lat": -0.02495617270664716,
        "lon": -132.0117912899528,
        "alt_km": 35785.13602828284,
        "timestamp": "2025-12-11T15:53:39.210361+00:00",
        "meta_object_name": "GALAXY 32 (G-32)",
        "meta_object_id": "2022-153B",
        "meta_epoch": "2025-12-10T11:23:53.431008",
        "meta_mean_motion": 1.00269631,
        "meta_eccentricity": 0.00024863,
        "meta_inclination": 0.0094,
        "meta_ra_of_asc_node": 343.9176,
        "meta_arg_of_pericenter": 325.4249,
        "meta_mean_anomaly": 210.0765,
        "meta_ephemeris_type": 0,
        "meta_classification_type": "U",
        "meta_norad_cat_id": 54244,
        "meta_element_set_no": 999,
        "meta_rev_at_epoch": 1125,
        "meta_bstar": 0,
        "meta_mean_motion_dot": -1.7e-06,
        "meta_mean_motion_ddot": 0,
        "tle_line1": "1 54244U 22153B   25344.47492397 -.00000170  00000+0  00000+0 0  9992",
        "tle_line2": "2 54244   0.0094 343.9176 0002486 325.4249 210.0765  1.00269631 11254"
      },
      "geometry": {
        "type": "Point",
        "coordinates": [
          -132.0117912899528,
          -0.02495617270664716
        ]
      }
    }
  ]
}